NORAD_CAT_ID,OBJECT_NAME,OBJECT_TYPE,EPOCH,MEAN_MOTION,ECCENTRICITY,INCLINATION,RA_OF_ASC_NODE,ARG_OF_PERICENTER,MEAN_ANOMALY,BSTAR,MEAN_MOTION_DOT,MEAN_MOTION_DDOT,TLE_LINE0,TLE_LINE1,TLE_LINE2,SEMIMAJOR_AXIS,PERIOD,APOGEE,PERIGEE,DECAYED
53704.0,STARLINK-4714,PAYLOAD,2023-05-26 22:24:33,15.08834853,0.0001121,53.2155,133.2614,89.3061,270.8059,4.2879e-05,3.95e-06,0.0,0 STARLINK-4714,1 53704U 22107E   23146.93371805  .00000395  00000-0  42879-4 0  9994,2 53704  53.2155 133.2614 0001121  89.3061 270.8059 15.08834853 41049,6917.896,95.438,540.537,538.986,0.0
53704.0,STARLINK-4714,PAYLOAD,2023-05-27 09:32:15,15.08837197,0.0001138,53.2157,131.1791,86.0116,274.1006,4.1915e-05,3.79e-06,0.0,0 STARLINK-4714,1 53704U 22107E   23147.39739791  .00000379  00000-0  41915-4 0  9999,2 53704  53.2157 131.1791 0001138  86.0116 274.1006 15.08837197 40522,6917.889,95.438,540.541,538.967,0.0
53704.0,STARLINK-4714,PAYLOAD,2023-05-27 22:15:20,15.08836592,0.0001168,53.2159,128.8001,93.1766,266.936,4.2837e-05,3.94e-06,0.0,0 STARLINK-4714,1 53704U 22107E   23147.92731935  .00000394  00000-0  42837-4 0  9991,2 53704  53.2159 128.8001 0001168  93.1766 266.9360 15.08836592 41198,6917.891,95.438,540.564,538.948,0.0
53704.0,STARLINK-4714,PAYLOAD,2023-05-28 06:12:15,15.08840064,0.0001205,53.2163,127.3136,93.2932,266.8198,6.8684e-05,8.05e-06,0.0,0 STARLINK-4714,1 53704U 22107E   23148.25851697  .00000805  00000-0  68684-4 0  9991,2 53704  53.2163 127.3136 0001205  93.2932 266.8198 15.08840064 41247,6917.88,95.438,540.579,538.912,0.0
53704.0,STARLINK-4714,PAYLOAD,2023-05-28 15:44:34,15.08838529,0.0001203,53.2162,125.5291,89.2561,270.8569,5.6456e-05,6.11e-06,0.0,0 STARLINK-4714,1 53704U 22107E   23148.65595877  .00000611  00000-0  56456-4 0  9999,2 53704  53.2162 125.5291 0001203  89.2561 270.8569 15.08838529 40710,6917.885,95.438,540.582,538.918,0.0
53704.0,STARLINK-4714,PAYLOAD,2023-05-29 07:38:25,15.08842498,0.0001233,53.2164,122.5554,89.5975,270.5158,6.6295e-05,7.67e-06,0.0,0 STARLINK-4714,1 53704U 22107E   23149.31835620  .00000767  00000-0  66295-4 0  9990,2 53704  53.2164 122.5554 0001233  89.5975 270.5158 15.08842498 41404,6917.873,95.437,540.591,538.885,0.0
53704.0,STARLINK-4714,PAYLOAD,2023-05-29 15:35:22,15.08834335,0.0001259,53.2159,121.068,88.5558,271.5578,-1.2369e-06,-3.08e-06,0.0,0 STARLINK-4714,1 53704U 22107E   23149.64956363 -.00000308  00000-0 -12369-5 0  9991,2 53704  53.2159 121.0680 0001259  88.5558 271.5578 15.08834335 40863,6917.898,95.438,540.634,538.892,0.0
53704.0,STARLINK-4714,PAYLOAD,2023-05-30 04:18:27,15.08835221,0.0001279,53.2158,118.6889,88.4223,271.6915,-1.0169e-05,-4.5e-06,0.0,0 STARLINK-4714,1 53704U 22107E   23150.17948450 -.00000450  00000-0 -10169-4 0  9992,2 53704  53.2158 118.6889 0001279  88.4223 271.6915 15.08835221 41531,6917.895,95.438,540.645,538.875,0.0
53704.0,STARLINK-4714,PAYLOAD,2023-05-30 21:47:41,15.08842291,0.000124,53.2171,115.4165,92.693,267.4204,6.5296e-05,7.52e-06,0.0,0 STARLINK-4714,1 53704U 22107E   23150.90811744  .00000752  00000-0  65296-4 0  9992,2 53704  53.2171 115.4165 0001240  92.6930 267.4204 15.08842291 41649,6917.873,95.437,540.596,538.881,0.0
53704.0,STARLINK-4714,PAYLOAD,2023-05-31 02:33:50,15.08847211,0.0001273,53.2162,114.5251,89.5537,270.5601,8.9709e-05,1.14e-05,0.0,0 STARLINK-4714,1 53704U 22107E   23151.10683307  .00001140  00000-0  89709-4 0  9994,2 53704  53.2162 114.5251 0001273  89.5537 270.5601 15.08847211 41080,6917.858,95.437,540.604,538.843,0.0
53704.0,STARLINK-4714,PAYLOAD,2023-05-31 07:19:59,15.08850576,0.0001261,53.2166,113.6336,87.4037,272.7099,8.6874e-05,1.095e-05,0.0,0 STARLINK-4714,1 53704U 22107E   23151.30555062  .00001095  00000-0  86874-4 0  9991,2 53704  53.2166 113.6336 0001261  87.4037 272.7099 15.08850576 41709,6917.848,95.437,540.585,538.841,0.0
53704.0,STARLINK-4714,PAYLOAD,2023-06-01 02:24:38,15.0883543,0.0001335,53.2167,110.0645,90.1267,269.9878,3.9554e-05,3.42e-06,0.0,0 STARLINK-4714,1 53704U 22107E   23152.10044151  .00000342  00000-0  39554-4 0  9999,2 53704  53.2167 110.0645 0001335  90.1267 269.9878 15.08835430 41235,6917.894,95.438,540.683,538.836,0.0
53704.0,STARLINK-4714,PAYLOAD,2023-06-01 04:00:01,15.08839088,0.0001265,53.2164,109.7666,87.92,272.1937,6.2165e-05,7.02e-06,0.0,0 STARLINK-4714,1 53704U 22107E   23152.16667868  .00000702  00000-0  62165-4 0  9995,2 53704  53.2164 109.7666 0001265  87.9200 272.1937 15.08839088 41834,6917.883,95.438,540.623,538.873,0.0
53704.0,STARLINK-4714,PAYLOAD,2023-06-02 03:50:48,15.08840451,0.0001178,53.2168,105.3066,85.2347,274.8779,-5.3635e-05,-1.141e-05,0.0,0 STARLINK-4714,1 53704U 22107E   23153.16028264 -.00001141  00000-0 -53635-4 0  9999,2 53704  53.2168 105.3066 0001178  85.2347 274.8779 15.08840451 41390,6917.879,95.438,540.559,538.929,0.0
53704.0,STARLINK-4714,PAYLOAD,2023-06-03 03:41:36,15.08833486,0.0001231,53.2171,100.8511,106.209,253.9038,-2.8723e-05,-7.45e-06,0.0,0 STARLINK-4714,1 53704U 22107E   23154.15389032 -.00000745  00000-0 -28723-4 0  9991,2 53704  53.2171 100.8511 0001231 106.2090 253.9038 15.08833486 41541,6917.9,95.438,540.617,538.914,0.0
53704.0,STARLINK-4714,PAYLOAD,2023-06-03 06:52:22,15.08837225,0.0001124,53.2166,100.254,97.0703,263.0417,9.2526e-07,-2.73e-06,0.0,0 STARLINK-4714,1 53704U 22107E   23154.28636763 -.00000273  00000-0  92526-6 0  9990,2 53704  53.2166 100.2540 0001124  97.0703 263.0417 15.08837225 42156,6917.889,95.438,540.531,538.976,0.0
53704.0,STARLINK-4714,PAYLOAD,2023-06-03 19:35:27,15.08835039,0.0001118,53.2168,97.8748,102.4338,257.6779,5.2225e-05,5.43e-06,0.0,0 STARLINK-4714,1 53704U 22107E   23154.81628961  .00000543  00000-0  52225-4 0  9999,2 53704  53.2168  97.8748 0001118 102.4338 257.6779 15.08835039 42237,6917.896,95.438,540.534,538.987,0.0
53704.0,STARLINK-4714,PAYLOAD,2023-06-04 05:07:45,15.08841144,0.0001157,53.2171,96.0908,99.52,260.5923,0.00010406,1.369e-05,0.0,0 STARLINK-4714,1 53704U 22107E   23155.21372522  .00001369  00000-0  10406-3 0  9994,2 53704  53.2171  96.0908 0001157  99.5200 260.5923 15.08841144 41706,6917.877,95.437,540.542,538.941,0.0
53704.0,STARLINK-4714,PAYLOAD,2023-06-04 19:26:14,15.08840054,0.0001208,53.2175,93.4149,94.1272,265.9859,7.0672e-05,8.37e-06,0.0,0 STARLINK-4714,1 53704U 22107E   23155.80988811  .00000837  00000-0  70672-4 0  9994,2 53704  53.2175  93.4149 0001208  94.1272 265.9859 15.08840054 42386,6917.88,95.438,540.581,538.91,0.0
53704.0,STARLINK-4714,PAYLOAD,2023-06-05 12:55:29,15.08836824,0.0001373,53.2172,90.1436,80.8703,279.2444,2.1958e-05,6.2e-07,0.0,0 STARLINK-4714,1 53704U 22107E   23156.53853257  .00000062  00000-0  21958-4 0  9993,2 53704  53.2172  90.1436 0001373  80.8703 279.2444 15.08836824 42490,6917.89,95.438,540.705,538.805,0.0
53704.0,STARLINK-4714,PAYLOAD,2023-06-05 19:17:01,15.08837157,0.0001306,53.2171,88.953,86.9503,273.1638,2.8587e-05,1.67e-06,0.0,0 STARLINK-4714,1 53704U 22107E   23156.80349275  .00000167  00000-0  28587-4 0  9994,2 53704  53.2171  88.9530 0001306  86.9503 273.1638 15.08837157 42533,6917.889,95.438,540.658,538.851,0.0
53704.0,STARLINK-4714,PAYLOAD,2023-06-06 04:49:20,15.08844932,0.000123,53.2178,87.1679,86.9713,273.1419,2.188e-05,6e-07,0.0,0 STARLINK-4714,1 53704U 22107E   23157.20092715  .00000060  00000-0  21880-4 0  9994,2 53704  53.2178  87.1679 0001230  86.9713 273.1419 15.08844932 42002,6917.865,95.437,540.581,538.879,0.0
53704.0,STARLINK-4714,PAYLOAD,2023-06-06 19:07:48,15.0884264,0.0001156,53.2172,84.4923,80.362,279.7502,-9.8383e-06,-4.44e-06,0.0,0 STARLINK-4714,1 53704U 22107E   23157.79708935 -.00000444  00000-0 -98383-5 0  9997,2 53704  53.2172  84.4923 0001156  80.3620 279.7502 15.08842640 42683,6917.872,95.437,540.537,538.938,0.0
53704.0,STARLINK-4714,PAYLOAD,2023-06-07 04:40:06,15.08850246,0.0001207,53.218,82.708,93.9974,266.1156,5.0803e-05,5.21e-06,0.0,0 STARLINK-4714,1 53704U 22107E   23158.19452101  .00000521  00000-0  50803-4 0  9991,2 53704  53.2180  82.7080 0001207  93.9974 266.1156 15.08850246 42749,6917.849,95.437,540.549,538.879,0.0
53704.0,STARLINK-4714,PAYLOAD,2023-06-07 18:58:35,15.08833802,0.000124,53.2162,80.0329,85.8841,274.2292,2.2445e-05,6.9e-07,0.0,0 STARLINK-4714,1 53704U 22107E   23158.79069339  .00000069  00000-0  22445-4 0  9992,2 53704  53.2162  80.0329 0001240  85.8841 274.2292 15.08833802 42241,6917.899,95.438,540.622,538.907,0.0
53704.0,STARLINK-4714,PAYLOAD,2023-06-08 01:20:08,15.0883472,0.0001106,53.2172,78.8424,80.7439,279.3678,3.9561e-05,3.42e-06,0.0,0 STARLINK-4714,1 53704U 22107E   23159.05565367  .00000342  00000-0  39561-4 0  9995,2 53704  53.2172  78.8424 0001106  80.7439 279.3678 15.08834720 42874,6917.897,95.438,540.527,538.996,0.0
53704.0,STARLINK-4714,PAYLOAD,2023-06-08 23:35:31,15.08845838,0.0001149,53.2173,74.6802,84.5538,275.5586,6.9075e-05,8.12e-06,0.0,0 STARLINK-4714,1 53704U 22107E   23159.98300693  .00000812  00000-0  69075-4 0  9991,2 53704  53.2173  74.6802 0001149  84.5538 275.5586 15.08845838 42427,6917.863,95.437,540.522,538.933,0.0
53704.0,STARLINK-4714,PAYLOAD,2023-06-09 10:43:14,15.08828709,0.0001028,53.2174,72.5986,85.451,274.6599,0.00022354,3.271e-05,0.0,0 STARLINK-4714,1 53704U 22107E   23160.44669465  .00003271  00000-0  22354-3 0  9999,2 53704  53.2174  72.5986 0001028  85.4510 274.6599 15.08828709 42493,6917.915,95.438,540.491,539.069,0.0
53704.0,STARLINK-4714,PAYLOAD,2023-06-09 18:40:10,15.0882913,0.0001271,53.218,71.1121,84.1756,275.9381,8.3975e-06,-1.54e-06,0.0,0 STARLINK-4714,1 53704U 22107E   23160.77790145 -.00000154  00000-0  83975-5 0  9991,2 53704  53.2180  71.1121 0001271  84.1756 275.9381 15.08829130 43138,6917.914,95.438,540.658,538.899,0.0
53704.0,STARLINK-4714,PAYLOAD,2023-06-10 04:12:29,15.08837503,0.000122,53.2181,69.3286,88.09,272.0231,8.1954e-05,1.017e-05,0.0,0 STARLINK-4714,1 53704U 22107E   23161.17533613  .00001017  00000-0  81954-4 0  9993,2 53704  53.2181  69.3286 0001220  88.0900 272.0231 15.08837503 43199,6917.888,95.438,540.597,538.909,0.0
